{
  "tenantId": "od.balasore",
  "moduleName": "egov-location",
  "TenantBoundary": [
    {
      "hierarchyType": {
        "code": "REVENUE",
        "name": "REVENUE"
      },
      "boundary": {
        "id": 1,
        "boundaryNum": 1,
        "name": "Balesore",
        "localname": "Balesore",
        "longitude": null,
        "latitude": null,
        "label": "City",
        "code": "od.balasore",
        "children": [
          {
            "id": "2",
            "boundaryNum": "1",
            "label": "Locality",
            "code": "VIL1",
            "pincode": [
              756003
            ],
            "name": "Sahadevkhunta(P)",
            "localname": "Sahadevkhunta(P)"
          },
          {
            "id": "3",
            "boundaryNum": "1",
            "label": "Locality",
            "code": "VIL2",
            "pincode": [
              756003
            ],
            "name": "Sovarampur(P)",
            "localname": "Sovarampur(P)"
          },
          {
            "id": "4",
            "boundaryNum": "1",
            "label": "Locality",
            "code": "VIL3",
            "pincode": [
              756003
            ],
            "name": "Angargadia(P)",
            "localname": "Angargadia(P)"
          },
          {
            "id": "5",
            "boundaryNum": "1",
            "label": "Locality",
            "code": "VIL4",
            "pincode": [
              756003
            ],
            "name": "Isan Nagar",
            "localname": "Isan Nagar"
          },
          {
            "id": "6",
            "boundaryNum": "1",
            "label": "Locality",
            "code": "VIL5",
            "pincode": [
              756003
            ],
            "name": "Padhunpada(P)",
            "localname": "Padhunpada(P)"
          },
          {
            "id": "7",
            "boundaryNum": "1",
            "label": "Locality",
            "code": "VIL6",
            "pincode": [
              756002
            ],
            "name": "Chandragadia",
            "localname": "Chandragadia"
          },
          {
            "id": "8",
            "boundaryNum": "1",
            "label": "Locality",
            "code": "VIL7",
            "pincode": [
              756003
            ],
            "name": "Bhaskarganj",
            "localname": "Bhaskarganj"
          },
          {
            "id": "9",
            "boundaryNum": "1",
            "label": "Locality",
            "code": "VIL8",
            "pincode": [
              756003
            ],
            "name": "Jadpur",
            "localname": "Jadpur"
          },
          {
            "id": "10",
            "boundaryNum": "1",
            "label": "Locality",
            "code": "VIL9",
            "pincode": [
              756003
            ],
            "name": "Aktiarpur(P)",
            "localname": "Aktiarpur(P)"
          },
          {
            "id": "11",
            "boundaryNum": "1",
            "label": "Locality",
            "code": "VIL10",
            "pincode": [
              756003
            ],
            "name": "Srikanthapur",
            "localname": "Srikanthapur"
          },
          {
            "id": "12",
            "boundaryNum": "1",
            "label": "Locality",
            "code": "VIL11",
            "pincode": [
              756003
            ],
            "name": "Gopalgaon",
            "localname": "Gopalgaon"
          },
          {
            "id": "13",
            "boundaryNum": "1",
            "label": "Locality",
            "code": "VIL12",
            "pincode": [
              756002
            ],
            "name": "Bagbrundaban",
            "localname": "Bagbrundaban"
          },
          {
            "id": "14",
            "boundaryNum": "1",
            "label": "Locality",
            "code": "VIL13",
            "pincode": [
              756002
            ],
            "name": "Mallikashpur(P)",
            "localname": "Mallikashpur(P)"
          },
          {
            "id": "15",
            "boundaryNum": "1",
            "label": "Locality",
            "code": "VIL14",
            "pincode": [
              756003
            ],
            "name": "Kadarabad",
            "localname": "Kadarabad"
          },
          {
            "id": "16",
            "boundaryNum": "1",
            "label": "Locality",
            "code": "VIL15",
            "pincode": [
              756003
            ],
            "name": "Mansinghabazar(P)",
            "localname": "Mansinghabazar(P)"
          },
          {
            "id": "17",
            "boundaryNum": "1",
            "label": "Locality",
            "code": "VIL16",
            "pincode": [
              756003
            ],
            "name": "Nalamganj",
            "localname": "Nalamganj"
          },
          {
            "id": "18",
            "boundaryNum": "1",
            "label": "Locality",
            "code": "VIL17",
            "pincode": [
              756003
            ],
            "name": "Bateswar",
            "localname": "Bateswar"
          },
          {
            "id": "19",
            "boundaryNum": "1",
            "label": "Locality",
            "code": "VIL18",
            "pincode": [
              756003
            ],
            "name": "Suelpur",
            "localname": "Suelpur"
          },
          {
            "id": "20",
            "boundaryNum": "1",
            "label": "Locality",
            "code": "VIL19",
            "pincode": [
              756003
            ],
            "name": "Manikhamb",
            "localname": "Manikhamb"
          },
          {
            "id": "21",
            "boundaryNum": "1",
            "label": "Locality",
            "code": "VIL20",
            "pincode": [
              756003
            ],
            "name": "Barabati",
            "localname": "Barabati"
          },
          {
            "id": "22",
            "boundaryNum": "1",
            "label": "Locality",
            "code": "VIL21",
            "pincode": [
              756003
            ],
            "name": "Damdorpur",
            "localname": "Damdorpur"
          },
          {
            "id": "23",
            "boundaryNum": "1",
            "label": "Locality",
            "code": "VIL22",
            "pincode": [
              756003
            ],
            "name": "Noorpur",
            "localname": "Noorpur"
          },
          {
            "id": "24",
            "boundaryNum": "1",
            "label": "Locality",
            "code": "VIL23",
            "pincode": [
              756003
            ],
            "name": "Akatpur",
            "localname": "Akatpur"
          },
          {
            "id": "25",
            "boundaryNum": "1",
            "label": "Locality",
            "code": "VIL24",
            "pincode": [
              756003
            ],
            "name": "Kasaba",
            "localname": "Kasaba"
          },
          {
            "id": "26",
            "boundaryNum": "1",
            "label": "Locality",
            "code": "VIL25",
            "pincode": [
              756003
            ],
            "name": "Mahammodpur",
            "localname": "Mahammodpur"
          },
          {
            "id": "27",
            "boundaryNum": "1",
            "label": "Locality",
            "code": "VIL26",
            "pincode": [
              756003
            ],
            "name": "Sunhat(P)",
            "localname": "Sunhat(P)"
          },
          {
            "id": "28",
            "boundaryNum": "1",
            "label": "Locality",
            "code": "VIL27",
            "pincode": [
              756003
            ],
            "name": "Purunabalasore(P)",
            "localname": "Purunabalasore(P)"
          },
          {
            "id": "29",
            "boundaryNum": "1",
            "label": "Locality",
            "code": "VIL28",
            "pincode": [
              756003
            ],
            "name": "Patrapada(P)",
            "localname": "Patrapada(P)"
          },
          {
            "id": "30",
            "boundaryNum": 1,
            "name": "Other",
            "localname": "Other",
            "longitude": null,
            "latitude": null,
            "label": "Locality",
            "code": "VIL29"
          }
        ]
      }
    },
    {
      "hierarchyType": {
        "code": "ADMIN",
        "name": "ADMIN"
      },
      "boundary": {
        "id": 1,
        "boundaryNum": 1,
        "name": "Balesore",
        "localname": "Balesore",
        "longitude": null,
        "latitude": null,
        "label": "City",
        "code": "od.balasore",
        "children": [
          {
            "id": "2",
            "boundaryNum": "1",
            "label": "Locality",
            "code": "VIL1",
            "pincode": [
              756003
            ],
            "name": "Sahadevkhunta(P)",
            "localname": "Sahadevkhunta(P)"
          },
          {
            "id": "3",
            "boundaryNum": "1",
            "label": "Locality",
            "code": "VIL2",
            "pincode": [
              756003
            ],
            "name": "Sovarampur(P)",
            "localname": "Sovarampur(P)"
          },
          {
            "id": "4",
            "boundaryNum": "1",
            "label": "Locality",
            "code": "VIL3",
            "pincode": [
              756003
            ],
            "name": "Angargadia(P)",
            "localname": "Angargadia(P)"
          },
          {
            "id": "5",
            "boundaryNum": "1",
            "label": "Locality",
            "code": "VIL4",
            "pincode": [
              756003
            ],
            "name": "Isan Nagar",
            "localname": "Isan Nagar"
          },
          {
            "id": "6",
            "boundaryNum": "1",
            "label": "Locality",
            "code": "VIL5",
            "pincode": [
              756003
            ],
            "name": "Padhunpada(P)",
            "localname": "Padhunpada(P)"
          },
          {
            "id": "7",
            "boundaryNum": "1",
            "label": "Locality",
            "code": "VIL6",
            "pincode": [
              756002
            ],
            "name": "Chandragadia",
            "localname": "Chandragadia"
          },
          {
            "id": "8",
            "boundaryNum": "1",
            "label": "Locality",
            "code": "VIL7",
            "pincode": [
              756003
            ],
            "name": "Bhaskarganj",
            "localname": "Bhaskarganj"
          },
          {
            "id": "9",
            "boundaryNum": "1",
            "label": "Locality",
            "code": "VIL8",
            "pincode": [
              756003
            ],
            "name": "Jadpur",
            "localname": "Jadpur"
          },
          {
            "id": "10",
            "boundaryNum": "1",
            "label": "Locality",
            "code": "VIL9",
            "pincode": [
              756003
            ],
            "name": "Aktiarpur(P)",
            "localname": "Aktiarpur(P)"
          },
          {
            "id": "11",
            "boundaryNum": "1",
            "label": "Locality",
            "code": "VIL10",
            "pincode": [
              756003
            ],
            "name": "Srikanthapur",
            "localname": "Srikanthapur"
          },
          {
            "id": "12",
            "boundaryNum": "1",
            "label": "Locality",
            "code": "VIL11",
            "pincode": [
              756003
            ],
            "name": "Gopalgaon",
            "localname": "Gopalgaon"
          },
          {
            "id": "13",
            "boundaryNum": "1",
            "label": "Locality",
            "code": "VIL12",
            "pincode": [
              756002
            ],
            "name": "Bagbrundaban",
            "localname": "Bagbrundaban"
          },
          {
            "id": "14",
            "boundaryNum": "1",
            "label": "Locality",
            "code": "VIL13",
            "pincode": [
              756002
            ],
            "name": "Mallikashpur(P)",
            "localname": "Mallikashpur(P)"
          },
          {
            "id": "15",
            "boundaryNum": "1",
            "label": "Locality",
            "code": "VIL14",
            "pincode": [
              756003
            ],
            "name": "Kadarabad",
            "localname": "Kadarabad"
          },
          {
            "id": "16",
            "boundaryNum": "1",
            "label": "Locality",
            "code": "VIL15",
            "pincode": [
              756003
            ],
            "name": "Mansinghabazar(P)",
            "localname": "Mansinghabazar(P)"
          },
          {
            "id": "17",
            "boundaryNum": "1",
            "label": "Locality",
            "code": "VIL16",
            "pincode": [
              756003
            ],
            "name": "Nalamganj",
            "localname": "Nalamganj"
          },
          {
            "id": "18",
            "boundaryNum": "1",
            "label": "Locality",
            "code": "VIL17",
            "pincode": [
              756003
            ],
            "name": "Bateswar",
            "localname": "Bateswar"
          },
          {
            "id": "19",
            "boundaryNum": "1",
            "label": "Locality",
            "code": "VIL18",
            "pincode": [
              756003
            ],
            "name": "Suelpur",
            "localname": "Suelpur"
          },
          {
            "id": "20",
            "boundaryNum": "1",
            "label": "Locality",
            "code": "VIL19",
            "pincode": [
              756003
            ],
            "name": "Manikhamb",
            "localname": "Manikhamb"
          },
          {
            "id": "21",
            "boundaryNum": "1",
            "label": "Locality",
            "code": "VIL20",
            "pincode": [
              756003
            ],
            "name": "Barabati",
            "localname": "Barabati"
          },
          {
            "id": "22",
            "boundaryNum": "1",
            "label": "Locality",
            "code": "VIL21",
            "pincode": [
              756003
            ],
            "name": "Damdorpur",
            "localname": "Damdorpur"
          },
          {
            "id": "23",
            "boundaryNum": "1",
            "label": "Locality",
            "code": "VIL22",
            "pincode": [
              756003
            ],
            "name": "Noorpur",
            "localname": "Noorpur"
          },
          {
            "id": "24",
            "boundaryNum": "1",
            "label": "Locality",
            "code": "VIL23",
            "pincode": [
              756003
            ],
            "name": "Akatpur",
            "localname": "Akatpur"
          },
          {
            "id": "25",
            "boundaryNum": "1",
            "label": "Locality",
            "code": "VIL24",
            "pincode": [
              756003
            ],
            "name": "Kasaba",
            "localname": "Kasaba"
          },
          {
            "id": "26",
            "boundaryNum": "1",
            "label": "Locality",
            "code": "VIL25",
            "pincode": [
              756003
            ],
            "name": "Mahammodpur",
            "localname": "Mahammodpur"
          },
          {
            "id": "27",
            "boundaryNum": "1",
            "label": "Locality",
            "code": "VIL26",
            "pincode": [
              756003
            ],
            "name": "Sunhat(P)",
            "localname": "Sunhat(P)"
          },
          {
            "id": "28",
            "boundaryNum": "1",
            "label": "Locality",
            "code": "VIL27",
            "pincode": [
              756003
            ],
            "name": "Purunabalasore(P)",
            "localname": "Purunabalasore(P)"
          },
          {
            "id": "29",
            "boundaryNum": "1",
            "label": "Locality",
            "code": "VIL28",
            "pincode": [
              756003
            ],
            "name": "Patrapada(P)",
            "localname": "Patrapada(P)"
          }
        ]
      }
    }
  ]
}
