{"tenantId":"mh.roha","moduleName":"lcms","court":[{"code":"001","address":{"pincode":"20052","city":"bombay","addressLine1":"Address 1","addressLine2":"address 2"},"name":"Court_1","tenantId":"default","active":true},{"name":"Mumbai High Court","code":"MHC","address":{"addressLine1":"KartarRoad ","addressLine2":"Mumbai Central","city":"Mumbai","pincode":"847225"},"active":true,"tenantId":"mh.roha"},{"name":"Patna High Court","code":"PC","address":{"addressLine1":"Gandhi Medan","addressLine2":"Belly Road","city":"Patna","pincode":"988888"},"active":true,"tenantId":"mh.roha"},{"name":"ATest","code":"AT01","address":{"addressLine1":"Test","addressLine2":"Test","city":"Test","pincode":"Test"},"active":true,"tenantId":"mh.roha"},{"name":"XTest","code":"XT01","address":{"addressLine1":"Test","addressLine2":"TEst","city":"Test","pincode":"Test"},"active":true,"tenantId":"mh.roha"},{"name":"FTEst1","code":"Fi98","address":{"addressLine1":"TEst","addressLine2":"Test","city":"Test","pincode":"TEst"},"active":true,"tenantId":"mh.roha"},{"name":"FNLTest","code":"FNLT","address":{"addressLine1":"Test","addressLine2":"Test","city":"Test","pincode":"Test"},"active":true,"tenantId":"mh.roha"},{"name":"GPKTest","code":"GPK11","address":{"addressLine1":"TEst","addressLine2":"TEst","city":"TEst","pincode":"TEst"},"active":true,"tenantId":"mh.roha"},{"name":"PraTest","code":"PT09","address":{"addressLine1":"Add1","addressLine2":"Add2","city":"Bang","pincode":"248001"},"active":true,"tenantId":"mh.roha"},{"name":"BellandurCourtupdated","code":"bc1","address":{"addressLine1":"ca1","addressLine2":"ca2","city":"cc","pincode":"cp12"},"active":true,"tenantId":"mh.roha"},{"name":"Gcourt1","code":"gcourtCode1","address":{"addressLine1":"add1","addressLine2":"add2","city":"bang","pincode":"150010"},"active":true,"tenantId":"mh.roha"}]}