{
  "tenantId": "od.berhampur",
  "moduleName": "egov-location",
  "TenantBoundary": [
    {
      "hierarchyType": {
        "code": "REVENUE",
        "name": "REVENUE"
      },
      "boundary": {
        "id": 1,
        "boundaryNum": 1,
        "name": "Brhmapur",
        "localname": "Brhmapur",
        "longitude": null,
        "latitude": null,
        "label": "City",
        "code": "od.berhampur",
        "children": [
          {
            "id": "2",
            "boundaryNum": 1,
            "name": "Raghupati Nagar",
            "localname": "Raghupati Nagar",
            "longitude": null,
            "latitude": null,
            "label": "Locality",
            "code": "VIL1",
            "pincode": [ 760001 ]
          },
          {
            "id": "3",
            "boundaryNum": 1,
            "name": "Burma Colony",
            "localname": "Burma Colony",
            "longitude": null,
            "latitude": null,
            "label": "Locality",
            "code": "VIL2",
            "pincode": [ 760001 ]
          },
          {
            "id": "4",
            "boundaryNum": 1,
            "name": "Narshingpur",
            "localname": "Narshingpur",
            "longitude": null,
            "latitude": null,
            "label": "Locality",
            "code": "VIL3",
            "pincode": [ 760001 ]
          },
          {
            "id": "5",
            "boundaryNum": 1,
            "name": "Madhusudanpur",
            "localname": "Madhusudanpur",
            "longitude": null,
            "latitude": null,
            "label": "Locality",
            "code": "VIL4",
            "pincode": [ 760001 ]
          },
          {
            "id": "6",
            "boundaryNum": 1,
            "name": "Haridakhandi",
            "localname": "Haridakhandi",
            "longitude": null,
            "latitude": null,
            "label": "Locality",
            "code": "VIL5",
            "pincode": [ 760001 ]
          },
          {
            "id": "7",
            "boundaryNum": 1,
            "name": "Sasibhusanpur",
            "localname": "Sasibhusanpur",
            "longitude": null,
            "latitude": null,
            "label": "Locality",
            "code": "VIL6",
            "pincode": [ 760001 ]
          },
          {
            "id": "8",
            "boundaryNum": 1,
            "name": "Rajendrapur",
            "localname": "Rajendrapur",
            "longitude": null,
            "latitude": null,
            "label": "Locality",
            "code": "VIL7",
            "pincode": [ 760001 ]
          },
          {
            "id": "9",
            "boundaryNum": 1,
            "name": "Bada Bazar",
            "localname": "Bada Bazar",
            "longitude": null,
            "latitude": null,
            "label": "Locality",
            "code": "VIL8",
            "pincode": [ 760001 ]
          },
          {
            "id": "10",
            "boundaryNum": 1,
            "name": "Berhampur",
            "localname": "Berhampur",
            "longitude": null,
            "latitude": null,
            "label": "Locality",
            "code": "VIL9",
            "pincode": [ 760001 ]
          },
          {
            "id": "11",
            "boundaryNum": 1,
            "name": "Alokapur",
            "localname": "Alokapur",
            "longitude": null,
            "latitude": null,
            "label": "Locality",
            "code": "VIL10",
            "pincode": [ 760001 ]
          },
          {
            "id": "12",
            "boundaryNum": 1,
            "name": "Mohamaipur",
            "localname": "Mohamaipur",
            "longitude": null,
            "latitude": null,
            "label": "Locality",
            "code": "VIL11",
            "pincode": [ 760001 ]
          },
          {
            "id": "13",
            "boundaryNum": 1,
            "name": "Gorachandpur",
            "localname": "Gorachandpur",
            "longitude": null,
            "latitude": null,
            "label": "Locality",
            "code": "VIL12",
            "pincode": [ 760001 ]
          },
          {
            "id": "14",
            "boundaryNum": 1,
            "name": "Mohaipur",
            "localname": "Mohaipur",
            "longitude": null,
            "latitude": null,
            "label": "Locality",
            "code": "VIL13",
            "pincode": [ 760001 ]
          },
          {
            "id": "15",
            "boundaryNum": 1,
            "name": "Satya Narayanpur",
            "localname": "Satya Narayanpur",
            "longitude": null,
            "latitude": null,
            "label": "Locality",
            "code": "VIL14",
            "pincode": [ 760001 ]
          },
          {
            "id": "16",
            "boundaryNum": 1,
            "name": "Madhabpur",
            "localname": "Madhabpur",
            "longitude": null,
            "latitude": null,
            "label": "Locality",
            "code": "VIL15",
            "pincode": [ 760001 ]
          },
          {
            "id": "17",
            "boundaryNum": 1,
            "name": "Paramhansopur",
            "localname": "Paramhansopur",
            "longitude": null,
            "latitude": null,
            "label": "Locality",
            "code": "VIL16",
            "pincode": [ 760001 ]
          },
          {
            "id": "18",
            "boundaryNum": 1,
            "name": "Parmhansopur",
            "localname": "Parmhansopur",
            "longitude": null,
            "latitude": null,
            "label": "Locality",
            "code": "VIL17",
            "pincode": [ 760001 ]
          },
          {
            "id": "19",
            "boundaryNum": 1,
            "name": "Goilundi",
            "localname": "Goilundi",
            "longitude": null,
            "latitude": null,
            "label": "Locality",
            "code": "VIL18",
            "pincode": [ 760001 ]
          },
          {
            "id": "20",
            "boundaryNum": 1,
            "name": "Nelakanthapur",
            "localname": "Nelakanthapur",
            "longitude": null,
            "latitude": null,
            "label": "Locality",
            "code": "VIL19",
            "pincode": [ 760001 ]
          },
          {
            "id": "21",
            "boundaryNum": 1,
            "name": "Bijipur",
            "localname": "Bijipur",
            "longitude": null,
            "latitude": null,
            "label": "Locality",
            "code": "VIL20",
            "pincode": [ 760001 ]
          },
          {
            "id": "22",
            "boundaryNum": 1,
            "name": "Gopabandhu Nagar",
            "localname": "Gopabandhu Nagar",
            "longitude": null,
            "latitude": null,
            "label": "Locality",
            "code": "VIL21",
            "pincode": [ 760001 ]
          },
          {
            "id": "23",
            "boundaryNum": 1,
            "name": "Raghunathpur",
            "localname": "Raghunathpur",
            "longitude": null,
            "latitude": null,
            "label": "Locality",
            "code": "VIL22",
            "pincode": [ 760001 ]
          },
          {
            "id": "24",
            "boundaryNum": 1,
            "name": "Baidhyanathpur",
            "localname": "Baidhyanathpur",
            "longitude": null,
            "latitude": null,
            "label": "Locality",
            "code": "VIL23",
            "pincode": [ 760001 ]
          },
          {
            "id": "25",
            "boundaryNum": 1,
            "name": "Panakalapalli",
            "localname": "Panakalapalli",
            "longitude": null,
            "latitude": null,
            "label": "Locality",
            "code": "VIL24",
            "pincode": [ 760001 ]
          },
          {
            "id": "26",
            "boundaryNum": 1,
            "name": "Subaspur",
            "localname": "Subaspur",
            "longitude": null,
            "latitude": null,
            "label": "Locality",
            "code": "VIL25",
            "pincode": [ 760001 ]
          },
          {
            "id": "27",
            "boundaryNum": 1,
            "name": "Sundarpur",
            "localname": "Sundarpur",
            "longitude": null,
            "latitude": null,
            "label": "Locality",
            "code": "VIL26",
            "pincode": [ 760001 ]
          },
          {
            "id": "28",
            "boundaryNum": 1,
            "name": "Sundarajpur",
            "localname": "Sundarajpur",
            "longitude": null,
            "latitude": null,
            "label": "Locality",
            "code": "VIL27",
            "pincode": [ 760001 ]
          },
          {
            "id": "29",
            "boundaryNum": 1,
            "name": "Ankuli",
            "localname": "Ankuli",
            "longitude": null,
            "latitude": null,
            "label": "Locality",
            "code": "VIL28",
            "pincode": [ 760001 ]
          },
          {
            "id": "30",
            "boundaryNum": 1,
            "name": "Khodasingi",
            "localname": "Khodasingi",
            "longitude": null,
            "latitude": null,
            "label": "Locality",
            "code": "VIL29",
            "pincode": [ 760001 ]
          },
          {
            "id": "31",
            "boundaryNum": 1,
            "name": "Sankarpur",
            "localname": "Sankarpur",
            "longitude": null,
            "latitude": null,
            "label": "Locality",
            "code": "VIL30",
            "pincode": [ 760001 ]
          },
          {
            "id": "32",
            "boundaryNum": 1,
            "name": "Purnaberhampur",
            "localname": "Purnaberhampur",
            "longitude": null,
            "latitude": null,
            "label": "Locality",
            "code": "VIL31",
            "pincode": [ 760001 ]
          },
          {
            "id": "33",
            "boundaryNum": 1,
            "name": "Nilakanthapur",
            "localname": "Nilakanthapur",
            "longitude": null,
            "latitude": null,
            "label": "Locality",
            "code": "VIL32",
            "pincode": [ 760001 ]
          },
          {
            "id": "34",
            "boundaryNum": 1,
            "name": "Gosaninuagam",
            "localname": "Gosaninuagam",
            "longitude": null,
            "latitude": null,
            "label": "Locality",
            "code": "VIL33",
            "pincode": [ 760001 ]
          },
          {
            "id": "35",
            "boundaryNum": 1,
            "name": "Utterswar",
            "localname": "Utterswar",
            "longitude": null,
            "latitude": null,
            "label": "Locality",
            "code": "VIL34",
            "pincode": [ 760001 ]
          },
          {
            "id": "36",
            "boundaryNum": 1,
            "name": "Lanjipalli",
            "localname": "Lanjipalli",
            "longitude": null,
            "latitude": null,
            "label": "Locality",
            "code": "VIL35",
            "pincode": [ 760001 ]
          },
          {
            "id": "37",
            "boundaryNum": 1,
            "name": "Umapur",
            "localname": "Umapur",
            "longitude": null,
            "latitude": null,
            "label": "Locality",
            "code": "VIL36",
            "pincode": [ 760001 ]
          },
          {
            "id": "38",
            "boundaryNum": "1",
            "name": "Kalapur",
            "localname": "Kalapur",
            "label": "Locality",
            "code": "VIL37",
            "pincode": [ 760001 ]
          },
          {
            "id": "39",
            "boundaryNum": "1",
            "name": "Ambapua",
            "localname": "Ambapua",
            "label": "Locality",
            "code": "VIL38",
            "pincode": [ 760001 ]
          },
          {
            "id": "40",
            "boundaryNum": "1",
            "name": "Mardharajpur",
            "localname": "Mardharajpur",
            "label": "Locality",
            "code": "VIL39",
            "pincode": [ 760001 ]
          },
			{
            "id": "41",
            "boundaryNum": 1,
            "name": "Other",
            "localname": "Other",
            "longitude": null,
            "latitude": null,
            "label": "Locality",
            "code": "VIL40"
          }
        ]
      }
    },
    {
      "hierarchyType": {
        "code": "ADMIN",
        "name": "ADMIN"
      },
      "boundary": {
        "id": 1,
        "boundaryNum": 1,
        "name": "Brhmapur",
        "localname": "Brhmapur",
        "longitude": null,
        "latitude": null,
        "label": "City",
        "code": "od.berhampur",
        "children": [
          {
            "id": "2",
            "boundaryNum": 1,
            "name": "Raghupati Nagar",
            "localname": "Raghupati Nagar",
            "longitude": null,
            "latitude": null,
            "label": "Locality",
            "code": "VIL1",
            "pincode": [ 760001 ]
          },
          {
            "id": "3",
            "boundaryNum": 1,
            "name": "Burma Colony",
            "localname": "Burma Colony",
            "longitude": null,
            "latitude": null,
            "label": "Locality",
            "code": "VIL2",
            "pincode": [ 760001 ]
          },
          {
            "id": "4",
            "boundaryNum": 1,
            "name": "Narshingpur",
            "localname": "Narshingpur",
            "longitude": null,
            "latitude": null,
            "label": "Locality",
            "code": "VIL3",
            "pincode": [ 760001 ]
          },
          {
            "id": "5",
            "boundaryNum": 1,
            "name": "Madhusudanpur",
            "localname": "Madhusudanpur",
            "longitude": null,
            "latitude": null,
            "label": "Locality",
            "code": "VIL4",
            "pincode": [ 760001 ]
          },
          {
            "id": "6",
            "boundaryNum": 1,
            "name": "Haridakhandi",
            "localname": "Haridakhandi",
            "longitude": null,
            "latitude": null,
            "label": "Locality",
            "code": "VIL5",
            "pincode": [ 760001 ]
          },
          {
            "id": "7",
            "boundaryNum": 1,
            "name": "Sasibhusanpur",
            "localname": "Sasibhusanpur",
            "longitude": null,
            "latitude": null,
            "label": "Locality",
            "code": "VIL6",
            "pincode": [ 760001 ]
          },
          {
            "id": "8",
            "boundaryNum": 1,
            "name": "Rajendrapur",
            "localname": "Rajendrapur",
            "longitude": null,
            "latitude": null,
            "label": "Locality",
            "code": "VIL7",
            "pincode": [ 760001 ]
          },
          {
            "id": "9",
            "boundaryNum": 1,
            "name": "Bada Bazar",
            "localname": "Bada Bazar",
            "longitude": null,
            "latitude": null,
            "label": "Locality",
            "code": "VIL8",
            "pincode": [ 760001 ]
          },
          {
            "id": "10",
            "boundaryNum": 1,
            "name": "Berhampur",
            "localname": "Berhampur",
            "longitude": null,
            "latitude": null,
            "label": "Locality",
            "code": "VIL9",
            "pincode": [ 760001 ]
          },
          {
            "id": "11",
            "boundaryNum": 1,
            "name": "Alokapur",
            "localname": "Alokapur",
            "longitude": null,
            "latitude": null,
            "label": "Locality",
            "code": "VIL10",
            "pincode": [ 760001 ]
          },
          {
            "id": "12",
            "boundaryNum": 1,
            "name": "Mohamaipur",
            "localname": "Mohamaipur",
            "longitude": null,
            "latitude": null,
            "label": "Locality",
            "code": "VIL11",
            "pincode": [ 760001 ]
          },
          {
            "id": "13",
            "boundaryNum": 1,
            "name": "Gorachandpur",
            "localname": "Gorachandpur",
            "longitude": null,
            "latitude": null,
            "label": "Locality",
            "code": "VIL12",
            "pincode": [ 760001 ]
          },
          {
            "id": "14",
            "boundaryNum": 1,
            "name": "Mohaipur",
            "localname": "Mohaipur",
            "longitude": null,
            "latitude": null,
            "label": "Locality",
            "code": "VIL13",
            "pincode": [ 760001 ]
          },
          {
            "id": "15",
            "boundaryNum": 1,
            "name": "Satya Narayanpur",
            "localname": "Satya Narayanpur",
            "longitude": null,
            "latitude": null,
            "label": "Locality",
            "code": "VIL14",
            "pincode": [ 760001 ]
          },
          {
            "id": "16",
            "boundaryNum": 1,
            "name": "Madhabpur",
            "localname": "Madhabpur",
            "longitude": null,
            "latitude": null,
            "label": "Locality",
            "code": "VIL15",
            "pincode": [ 760001 ]
          },
          {
            "id": "17",
            "boundaryNum": 1,
            "name": "Paramhansopur",
            "localname": "Paramhansopur",
            "longitude": null,
            "latitude": null,
            "label": "Locality",
            "code": "VIL16",
            "pincode": [ 760001 ]
          },
          {
            "id": "18",
            "boundaryNum": 1,
            "name": "Parmhansopur",
            "localname": "Parmhansopur",
            "longitude": null,
            "latitude": null,
            "label": "Locality",
            "code": "VIL17",
            "pincode": [ 760001 ]
          },
          {
            "id": "19",
            "boundaryNum": 1,
            "name": "Goilundi",
            "localname": "Goilundi",
            "longitude": null,
            "latitude": null,
            "label": "Locality",
            "code": "VIL18",
            "pincode": [ 760001 ]
          },
          {
            "id": "20",
            "boundaryNum": 1,
            "name": "Nelakanthapur",
            "localname": "Nelakanthapur",
            "longitude": null,
            "latitude": null,
            "label": "Locality",
            "code": "VIL19",
            "pincode": [ 760001 ]
          },
          {
            "id": "21",
            "boundaryNum": 1,
            "name": "Bijipur",
            "localname": "Bijipur",
            "longitude": null,
            "latitude": null,
            "label": "Locality",
            "code": "VIL20",
            "pincode": [ 760001 ]
          },
          {
            "id": "22",
            "boundaryNum": 1,
            "name": "Gopabandhu Nagar",
            "localname": "Gopabandhu Nagar",
            "longitude": null,
            "latitude": null,
            "label": "Locality",
            "code": "VIL21",
            "pincode": [ 760001 ]
          },
          {
            "id": "23",
            "boundaryNum": 1,
            "name": "Raghunathpur",
            "localname": "Raghunathpur",
            "longitude": null,
            "latitude": null,
            "label": "Locality",
            "code": "VIL22",
            "pincode": [ 760001 ]
          },
          {
            "id": "24",
            "boundaryNum": 1,
            "name": "Baidhyanathpur",
            "localname": "Baidhyanathpur",
            "longitude": null,
            "latitude": null,
            "label": "Locality",
            "code": "VIL23",
            "pincode": [ 760001 ]
          },
          {
            "id": "25",
            "boundaryNum": 1,
            "name": "Panakalapalli",
            "localname": "Panakalapalli",
            "longitude": null,
            "latitude": null,
            "label": "Locality",
            "code": "VIL24",
            "pincode": [ 760001 ]
          },
          {
            "id": "26",
            "boundaryNum": 1,
            "name": "Subaspur",
            "localname": "Subaspur",
            "longitude": null,
            "latitude": null,
            "label": "Locality",
            "code": "VIL25",
            "pincode": [ 760001 ]
          },
          {
            "id": "27",
            "boundaryNum": 1,
            "name": "Sundarpur",
            "localname": "Sundarpur",
            "longitude": null,
            "latitude": null,
            "label": "Locality",
            "code": "VIL26",
            "pincode": [ 760001 ]
          },
          {
            "id": "28",
            "boundaryNum": 1,
            "name": "Sundarajpur",
            "localname": "Sundarajpur",
            "longitude": null,
            "latitude": null,
            "label": "Locality",
            "code": "VIL27",
            "pincode": [ 760001 ]
          },
          {
            "id": "29",
            "boundaryNum": 1,
            "name": "Ankuli",
            "localname": "Ankuli",
            "longitude": null,
            "latitude": null,
            "label": "Locality",
            "code": "VIL28",
            "pincode": [ 760001 ]
          },
          {
            "id": "30",
            "boundaryNum": 1,
            "name": "Khodasingi",
            "localname": "Khodasingi",
            "longitude": null,
            "latitude": null,
            "label": "Locality",
            "code": "VIL29",
            "pincode": [ 760001 ]
          },
          {
            "id": "31",
            "boundaryNum": 1,
            "name": "Sankarpur",
            "localname": "Sankarpur",
            "longitude": null,
            "latitude": null,
            "label": "Locality",
            "code": "VIL30",
            "pincode": [ 760001 ]
          },
          {
            "id": "32",
            "boundaryNum": 1,
            "name": "Purnaberhampur",
            "localname": "Purnaberhampur",
            "longitude": null,
            "latitude": null,
            "label": "Locality",
            "code": "VIL31",
            "pincode": [ 760001 ]
          },
          {
            "id": "33",
            "boundaryNum": 1,
            "name": "Nilakanthapur",
            "localname": "Nilakanthapur",
            "longitude": null,
            "latitude": null,
            "label": "Locality",
            "code": "VIL32",
            "pincode": [ 760001 ]
          },
          {
            "id": "34",
            "boundaryNum": 1,
            "name": "Gosaninuagam",
            "localname": "Gosaninuagam",
            "longitude": null,
            "latitude": null,
            "label": "Locality",
            "code": "VIL33",
            "pincode": [ 760001 ]
          },
          {
            "id": "35",
            "boundaryNum": 1,
            "name": "Utterswar",
            "localname": "Utterswar",
            "longitude": null,
            "latitude": null,
            "label": "Locality",
            "code": "VIL34",
            "pincode": [ 760001 ]
          },
          {
            "id": "36",
            "boundaryNum": 1,
            "name": "Lanjipalli",
            "localname": "Lanjipalli",
            "longitude": null,
            "latitude": null,
            "label": "Locality",
            "code": "VIL35",
            "pincode": [ 760001 ]
          },
          {
            "id": "37",
            "boundaryNum": 1,
            "name": "Umapur",
            "localname": "Umapur",
            "longitude": null,
            "latitude": null,
            "label": "Locality",
            "code": "VIL36",
            "pincode": [ 760001 ]
          },
          {
            "id": "38",
            "boundaryNum": "1",
            "name": "Kalapur",
            "localname": "Kalapur",
            "label": "Locality",
            "code": "VIL37",
            "pincode": [ 760001 ]
          },
          {
            "id": "39",
            "boundaryNum": "1",
            "name": "Ambapua",
            "localname": "Ambapua",
            "label": "Locality",
            "code": "VIL38",
            "pincode": [ 760001 ]
          },
          {
            "id": "40",
            "boundaryNum": "1",
            "name": "Mardharajpur",
            "localname": "Mardharajpur",
            "label": "Locality",
            "code": "VIL39",
            "pincode": [ 760001 ]
          }
        ]
      }
    }
  ]
}
